{
  "type": "FeatureCollection",
  "features": [
    {
      "type": "Feature",
      "properties": {
        "norad_id": 30596,
        "name": "FENGYUN 1C DEB",
        "group": "fengyun-1c-debris",
        "lat": -58.57212413089379,
        "lon": 159.26289873369635,
        "alt_km": 620.127858920293,
        "timestamp": "2025-12-21T18:54:58.773914+00:00",
        "meta_object_name": "FENGYUN 1C DEB",
        "meta_object_id": "1999-025AMB",
        "meta_epoch": "2025-12-20T12:16:23.179296",
        "meta_mean_motion": 14.34379571,
        "meta_eccentricity": 0.02471983,
        "meta_inclination": 98.4132,
        "meta_ra_of_asc_node": 352.0347,
        "meta_arg_of_pericenter": 265.8226,
        "meta_mean_anomaly": 225.4808,
        "meta_ephemeris_type": 0,
        "meta_classification_type": "U",
        "meta_norad_cat_id": 30596,
        "meta_element_set_no": 999,
        "meta_rev_at_epoch": 98672,
        "meta_bstar": 0.00020806481,
        "meta_mean_motion_dot": 7.7e-06,
        "meta_mean_motion_ddot": 0,
        "tle_line1": "1 30596U 99025AMB 25354.51137939  .00000770  00000+0  20806-3 0  9997",
        "tle_line2": "2 30596  98.4132 352.0347 0247198 265.8226 225.4808 14.34379571986723"
      },
      "geometry": {
        "type": "Point",
        "coordinates": [
          159.26289873369635,
          -58.57212413089379
        ]
      }
    },
    {
      "type": "Feature",
      "properties": {
        "norad_id": 30597,
        "name": "FENGYUN 1C DEB",
        "group": "fengyun-1c-debris",
        "lat": -39.620770280929314,
        "lon": 105.98421979644395,
        "alt_km": 592.2824941110002,
        "timestamp": "2025-12-21T18:54:58.773924+00:00",
        "meta_object_name": "FENGYUN 1C DEB",
        "meta_object_id": "1999-025AMC",
        "meta_epoch": "2025-12-20T19:25:14.730528",
        "meta_mean_motion": 14.93090835,
        "meta_eccentricity": 0.00463033,
        "meta_inclination": 98.9411,
        "meta_ra_of_asc_node": 292.3619,
        "meta_arg_of_pericenter": 137.173,
        "meta_mean_anomaly": 223.3108,
        "meta_ephemeris_type": 0,
        "meta_classification_type": "U",
        "meta_norad_cat_id": 30597,
        "meta_element_set_no": 999,
        "meta_rev_at_epoch": 98657,
        "meta_bstar": 0.0024964264,
        "meta_mean_motion_dot": 0.00026574,
        "meta_mean_motion_ddot": 0,
        "tle_line1": "1 30597U 99025AMC 25354.80919827  .00026574  00000+0  24964-2 0  9992",
        "tle_line2": "2 30597  98.9411 292.3619 0046303 137.1730 223.3108 14.93090835986574"
      },
      "geometry": {
        "type": "Point",
        "coordinates": [
          105.98421979644395,
          -39.620770280929314
        ]
      }
    },
    {
      "type": "Feature",
      "properties": {
        "norad_id": 30599,
        "name": "FENGYUN 1C DEB",
        "group": "fengyun-1c-debris",
        "lat": 81.34083304944022,
        "lon": -76.51375146473535,
        "alt_km": 956.219641396604,
        "timestamp": "2025-12-21T18:54:58.773933+00:00",
        "meta_object_name": "FENGYUN 1C DEB",
        "meta_object_id": "1999-025AME",
        "meta_epoch": "2025-12-20T00:12:57.449664",
        "meta_mean_motion": 14.19723945,
        "meta_eccentricity": 0.03019093,
        "meta_inclination": 98.602,
        "meta_ra_of_asc_node": 5.4391,
        "meta_arg_of_pericenter": 323.6948,
        "meta_mean_anomaly": 34.4074,
        "meta_ephemeris_type": 0,
        "meta_classification_type": "U",
        "meta_norad_cat_id": 30599,
        "meta_element_set_no": 999,
        "meta_rev_at_epoch": 97270,
        "meta_bstar": 0.00050499549,
        "meta_mean_motion_dot": 1.635e-05,
        "meta_mean_motion_ddot": 0,
        "tle_line1": "1 30599U 99025AME 25354.00899826  .00001635  00000+0  50500-3 0  9999",
        "tle_line2": "2 30599  98.6020   5.4391 0301909 323.6948  34.4074 14.19723945972704"
      },
      "geometry": {
        "type": "Point",
        "coordinates": [
          -76.51375146473535,
          81.34083304944022
        ]
      }
    },
    {
      "type": "Feature",
      "properties": {
        "norad_id": 30600,
        "name": "FENGYUN 1C DEB",
        "group": "fengyun-1c-debris",
        "lat": 27.859902301218984,
        "lon": 124.38581791750924,
        "alt_km": 777.5256467370828,
        "timestamp": "2025-12-21T18:54:58.773943+00:00",
        "meta_object_name": "FENGYUN 1C DEB",
        "meta_object_id": "1999-025AMF",
        "meta_epoch": "2025-12-20T14:52:23.604960",
        "meta_mean_motion": 14.07612594,
        "meta_eccentricity": 0.0326796,
        "meta_inclination": 98.3891,
        "meta_ra_of_asc_node": 298.8245,
        "meta_arg_of_pericenter": 224.7834,
        "meta_mean_anomaly": 132.6533,
        "meta_ephemeris_type": 0,
        "meta_classification_type": "U",
        "meta_norad_cat_id": 30600,
        "meta_element_set_no": 999,
        "meta_rev_at_epoch": 94543,
        "meta_bstar": 0.0014756,
        "meta_mean_motion_dot": 4.02e-05,
        "meta_mean_motion_ddot": 0,
        "tle_line1": "1 30600U 99025AMF 25354.61971765  .00004020  00000+0  14756-2 0  9995",
        "tle_line2": "2 30600  98.3891 298.8245 0326796 224.7834 132.6533 14.07612594945437"
      },
      "geometry": {
        "type": "Point",
        "coordinates": [
          124.38581791750924,
          27.859902301218984
        ]
      }
    },
    {
      "type": "Feature",
      "properties": {
        "norad_id": 30602,
        "name": "FENGYUN 1C DEB",
        "group": "fengyun-1c-debris",
        "lat": 28.850485274907523,
        "lon": -94.0450393701207,
        "alt_km": 585.2249275600407,
        "timestamp": "2025-12-21T18:54:58.773953+00:00",
        "meta_object_name": "FENGYUN 1C DEB",
        "meta_object_id": "1999-025AMH",
        "meta_epoch": "2025-12-21T11:01:20.158176",
        "meta_mean_motion": 14.92359214,
        "meta_eccentricity": 0.00132195,
        "meta_inclination": 99.0331,
        "meta_ra_of_asc_node": 270.606,
        "meta_arg_of_pericenter": 95.5213,
        "meta_mean_anomaly": 327.8785,
        "meta_ephemeris_type": 0,
        "meta_classification_type": "U",
        "meta_norad_cat_id": 30602,
        "meta_element_set_no": 999,
        "meta_rev_at_epoch": 97935,
        "meta_bstar": 0.0060165211,
        "meta_mean_motion_dot": 0.00062102,
        "meta_mean_motion_ddot": 0,
        "tle_line1": "1 30602U 99025AMH 25355.45926109  .00062102  00000+0  60165-2 0  9992",
        "tle_line2": "2 30602  99.0331 270.6060 0013219  95.5213 327.8785 14.92359214979353"
      },
      "geometry": {
        "type": "Point",
        "coordinates": [
          -94.0450393701207,
          28.850485274907523
        ]
      }
    },
    {
      "type": "Feature",
      "properties": {
        "norad_id": 30603,
        "name": "FENGYUN 1C DEB",
        "group": "fengyun-1c-debris",
        "lat": 61.39096121107248,
        "lon": 2.0279042471074273,
        "alt_km": 1004.5550594643846,
        "timestamp": "2025-12-21T18:54:58.773963+00:00",
        "meta_object_name": "FENGYUN 1C DEB",
        "meta_object_id": "1999-025AMJ",
        "meta_epoch": "2025-12-21T14:02:09.800160",
        "meta_mean_motion": 13.84147604,
        "meta_eccentricity": 0.01835199,
        "meta_inclination": 98.4081,
        "meta_ra_of_asc_node": 17.5797,
        "meta_arg_of_pericenter": 181.2311,
        "meta_mean_anomaly": 310.5448,
        "meta_ephemeris_type": 0,
        "meta_classification_type": "U",
        "meta_norad_cat_id": 30603,
        "meta_element_set_no": 999,
        "meta_rev_at_epoch": 94998,
        "meta_bstar": 0.001015221,
        "meta_mean_motion_dot": 1.252e-05,
        "meta_mean_motion_ddot": 0,
        "tle_line1": "1 30603U 99025AMJ 25355.58483565  .00001252  00000+0  10152-2 0  9991",
        "tle_line2": "2 30603  98.4081  17.5797 0183519 181.2311 310.5448 13.84147604949986"
      },
      "geometry": {
        "type": "Point",
        "coordinates": [
          2.0279042471074273,
          61.39096121107248
        ]
      }
    },
    {
      "type": "Feature",
      "properties": {
        "norad_id": 30604,
        "name": "FENGYUN 1C DEB",
        "group": "fengyun-1c-debris",
        "lat": -65.83571241543908,
        "lon": 49.461210704591245,
        "alt_km": 717.1115492278486,
        "timestamp": "2025-12-21T18:54:58.773973+00:00",
        "meta_object_name": "FENGYUN 1C DEB",
        "meta_object_id": "1999-025AMK",
        "meta_epoch": "2025-12-19T01:34:07.173120",
        "meta_mean_motion": 14.23620654,
        "meta_eccentricity": 0.02092952,
        "meta_inclination": 98.4019,
        "meta_ra_of_asc_node": 27.6253,
        "meta_arg_of_pericenter": 348.3373,
        "meta_mean_anomaly": 39.6079,
        "meta_ephemeris_type": 0,
        "meta_classification_type": "U",
        "meta_norad_cat_id": 30604,
        "meta_element_set_no": 999,
        "meta_rev_at_epoch": 97929,
        "meta_bstar": 0.00023851442,
        "meta_mean_motion_dot": 6.35e-06,
        "meta_mean_motion_ddot": 0,
        "tle_line1": "1 30604U 99025AMK 25353.06536080  .00000635  00000+0  23851-3 0  9999",
        "tle_line2": "2 30604  98.4019  27.6253 0209295 348.3373  39.6079 14.23620654979292"
      },
      "geometry": {
        "type": "Point",
        "coordinates": [
          49.461210704591245,
          -65.83571241543908
        ]
      }
    }
  ]
}